INMARSAT 4-F2 (SOUTHPA*)
1 28899U 05044A   26142.97425178 -.00000268  00000+0  00000+0 0  9992
2 28899   5.0640  43.7420 0002944  15.1732 315.8949  1.00270917 75267
GSAT-8 (GAGAN/PRN 127)  
1 37605U 11022A   26143.81227963  .00000079  00000+0  00000+0 0  9995
2 37605   2.0704  82.1038 0003141 225.1283 281.6886  1.00271429 52978
LUCH 5A (SDCM/PRN 140)  
1 37951U 11074B   26142.57898361 -.00000054  00000+0  00000+0 0  9998
2 37951   8.6917  74.1747 0002289 335.7243 205.9028  1.00275337 52793
SES-5 (EGNOS/PRN 136)   
1 38652U 12036A   26143.73102045  .00000027  00000+0  00000+0 0  9991
2 38652   0.0515 306.9601 0001919 108.4453  94.0776  1.00271915 44217
GSAT-10 (GAGAN/PRN 128) 
1 38779U 12051B   26143.34767190 -.00000172  00000+0  00000+0 0  9995
2 38779   0.0491 261.6652 0007452 181.4153   6.0152  1.00272887 49843
LUCH 5B (SDCM/PRN 125)  
1 38977U 12061A   26143.01385031 -.00000146  00000+0  00000+0 0  9991
2 38977  10.4322  50.1314 0001360 168.8050  10.3388  1.00269974 49352
ASTRA 5B (EGNOS/PRN 123)
1 39617U 14011B   26143.78239258  .00000130  00000+0  00000+0 0  9995
2 39617   0.0566 317.3641 0002506  72.8145 156.3646  1.00269868 44425
LUCH 5V (SDCM/PRN 141)  
1 39727U 14023A   26143.85233542 -.00000274  00000+0  00000+0 0  9998
2 39727   5.0756  69.9902 0002026  13.2309 199.8430  1.00272370 44112
GSAT-15 (GAGAN/PRN 139) 
1 41028U 15065A   26143.34211398 -.00000265  00000+0  00000+0 0  9991
2 41028   0.0180 246.1754 0003775 175.5601  35.8778  1.00271734 38556
EUTELSAT 117 WEST B (W*)
1 41589U 16038B   26143.45600234 -.00000019  00000+0  00000+0 0  9994
2 41589   0.0225 147.3044 0000329 304.1059 196.8367  1.00271680 36416
SES-15 (WAAS/PRN 133)   
1 42709U 17026A   26143.56195240  .00000053  00000+0  00000+0 0  9992
2 42709   0.0197 336.4226 0000523  52.1733 285.7272  1.00270060  7183
QZS-2 (QZSS/PRN 194)    
1 42738U 17028A   26143.57130031 -.00000234  00000+0  00000+0 0  9996
2 42738  39.4655 243.5175 0760716 269.0027  74.8135  1.00290225  7374
QZS-3 (QZSS/PRN 199)    
1 42917U 17048A   26143.82655807 -.00000354  00000+0  00000+0 0  9991
2 42917   0.0859 122.5096 0001977 296.6882 246.8033  1.00267828 32013
QZS-4 (QZSS/PRN 195)    
1 42965U 17062A   26142.87128177 -.00000351  00000+0  00000+0 0  9996
2 42965  40.1228 343.8034 0745550 271.3735  77.7997  1.00258280 31549
BEIDOU-3 G1 (PRN 130)   
1 43683U 18085A   26143.83305810 -.00000114  00000+0  00000+0 0  9995
2 43683   2.8087  98.0306 0007929 342.2614 261.0175  1.00271324 27816
EUTELSAT 5 WEST B (EGN*)
1 44624U 19067A   26143.82266997 -.00000049  00000+0  00000+0 0  9990
2 44624   0.0671 337.6859 0003079  79.9389 114.9635  1.00271180 24196
BEIDOU-3 G2 (PRN 144)   
1 45344U 20017A   26143.88850189 -.00000146  00000+0  00000+0 0  9993
2 45344   2.8175  46.9923 0002372  10.8971 223.5064  1.00270972 23014
BEIDOU-3 G3 (PRN 143)   
1 45807U 20040A   26143.89456839 -.00000359  00000+0  00000+0 0  9994
2 45807   2.3900  67.3931 0003080 334.2854 272.4019  1.00269050 21820
GALAXY 30 (WAAS/PRN 135)
1 46114U 20056C   26143.70536700  .00000030  00000+0  00000+0 0  9994
2 46114   0.0168 326.3946 0002186  94.3452 309.5150  1.00272930 21044
QZS-1R (QZSS/PRN 196)   
1 49336U 21096A   26142.62117972 -.00000256  00000+0  00000+0 0  9995
2 49336  37.4125  79.9597 0753049 271.3347 247.8196  1.00264167 16753
QZS-6 (QZSS/PRN 200)    
1 62876U 25023A   26143.85233542 -.00000239  00000+0  00000+0 0  9992
2 62876   0.0173 307.5958 0002278 116.3769 214.8517  1.00271449  4708
